1 44818U 19081Q   21295.42874465  .00003456  00000-0  15264-3 0  9992
2 44818  97.4363 358.0969 0009627 341.5434  18.5452 15.22365953105650
1 44818U 19081Q   21295.75739056  .00003596  00000-0  15872-3 0  9994
2 44818  97.4361 358.4220 0009585 340.4779  19.6089 15.22368610105702
1 44818U 19081Q   21296.21749378  .00003611  00000-0  15933-3 0  9990
2 44818  97.4360 358.8771 0009529 338.7790  21.3049 15.22371871105773
1 44818U 19081Q   21296.61186809  .00003216  00000-0  14224-3 0  9991
2 44818  97.4358 359.2673 0009491 337.3248  22.7567 15.22373048105832
1 44818U 19081Q   21297.33488636  .00002899  00000-0  12854-3 0  9997
2 44818  97.4357 359.9823 0009428 334.5242  25.5529 15.22375941105943
1 44818U 19081Q   21297.72925940  .00002654  00000-0  11793-3 0  9994
2 44818  97.4355   0.3723 0009390 332.9840  27.0906 15.22377202106007
1 44818U 19081Q   21297.86071694  .00002389  00000-0  10644-3 0  9996
2 44818  97.4355   0.5025 0009404 332.5792  27.4946 15.22377176106022
1 44818U 19081Q   21298.18936082  .00002766  00000-0  12275-3 0  9994
2 44818  97.4356   0.8272 0009426 331.1963  28.8751 15.22379657106079
1 44818U 19081Q   21298.97810328  .00002429  00000-0  10817-3 0  9991
2 44818  97.4355   1.6075 0009379 328.2443  31.8227 15.22383290106198
1 44818U 19081Q   21299.43820329  .00002593  00000-0  11526-3 0  9995
2 44818  97.4352   2.0626 0009280 326.3274  33.7372 15.22384781106260
1 44818U 19081Q   21300.22694335  .00002681  00000-0  11906-3 0  9991
2 44818  97.4352   2.8427 0009224 323.2452  36.8150 15.22388938106388
1 44818U 19081Q   21301.41004932  .00003064  00000-0  13561-3 0  9996
2 44818  97.4353   4.0128 0009126 318.6187  41.4357 15.22396277106561
1 44818U 19081Q   21301.87014467  .00003184  00000-0  14077-3 0  9996
2 44818  97.4353   4.4678 0009095 316.8275  43.2248 15.22399095106636
1 44818U 19081Q   21302.33023970  .00003817  00000-0  16813-3 0  9990
2 44818  97.4353   4.9229 0009068 315.0096  45.0405 15.22403249106705
1 44818U 19081Q   21302.85606041  .00004619  00000-0  20277-3 0  9993
2 44818  97.4353   5.4429 0009042 312.9352  47.1125 15.22408942106781
1 44818U 19081Q   21302.98751512  .00004846  00000-0  21254-3 0  9999
2 44818  97.4353   5.5727 0009005 312.2731  47.7741 15.22410594106805
1 44818U 19081Q   21303.44760695  .00004726  00000-0  20734-3 0  9992
2 44818  97.4355   6.0282 0009017 310.5313  49.5137 15.22413355106873
1 44818U 19081Q   21303.57905742  .00011320  00000-0  49176-3 0  9999
2 44818  97.4356   6.1579 0009010 309.8079  50.2364 15.22429913106897
1 44818U 19081Q   21304.43349969  .00013787  00000-0  59775-3 0  9993
2 44818  97.4357   7.0030 0008930 306.5499  53.4915 15.22448087107026
1 44818U 19081Q   21305.09075399  .00014353  00000-0  62181-3 0  9994
2 44818  97.4357   7.6533 0008894 304.0286  56.0105 15.22464983107120
1 44818U 19081Q   21305.15647885  .00012193  00000-0  52883-3 0  9994
2 44818  97.4357   7.7183 0008890 303.7259  56.3129 15.22464656107131
1 44818U 19081Q   21305.74800108  .00011745  00000-0  50935-3 0  9996
2 44818  97.4340   8.3030 0008859 303.0312  57.0060 15.22477722107229
1 44818U 19081Q   21305.74800108  .00011947  00000-0  51805-3 0  9997
2 44818  97.4356   8.3034 0008890 301.2501  58.7864 15.22478742107228
1 44818U 19081Q   21307.12820814  .00009007  00000-0  39126-3 0  9993
2 44818  97.4355   9.6688 0008831 295.6316  64.4007 15.22496284107438
1 44818U 19081Q   21307.45682638  .00010482  00000-0  45468-3 0  9994
2 44818  97.4354   9.9940 0008770 294.3739  65.6582 15.22502145107488
1 44818U 19081Q   21308.44266486  .00029992  00000-0  12901-2 0  9994
2 44818  97.4350  10.9691 0008725 290.4313  69.5986 15.22551557107633
1 44818U 19081Q   21308.83699614  .00017620  00000-0  76046-3 0  9996
2 44818  97.4348  11.3591 0008681 289.0893  70.9403 15.22549280107698
1 44818U 19081Q   21309.09988102  .00015057  00000-0  65040-3 0  9992
2 44818  97.4347  11.6191 0008662 288.0510  71.9783 15.22555775107733
1 44818U 19081Q   21309.42848609  .00010450  00000-0  45255-3 0  9994
2 44818  97.4343  11.9444 0008652 286.6452  73.3834 15.22559784107783
1 44818U 19081Q   21309.62564968  .00007592  00000-0  32972-3 0  9994
2 44818  97.4345  12.1395 0008719 285.5001  74.5273 15.22560017107810
1 44818U 19081Q   21310.15141690  .00005899  00000-0  25689-3 0  9992
2 44818  97.4341  12.6594 0008710 283.4208  76.6057 15.22564645107891
1 44818U 19081Q   21310.41429985  .00005322  00000-0  23207-3 0  9992
2 44818  97.4339  12.9195 0008730 282.2183  77.8075 15.22565632107934
1 44818U 19081Q   21310.74290395  .00004491  00000-0  19632-3 0  9992
2 44818  97.4338  13.2446 0008742 280.7405  79.2847 15.22566836107984
1 44818U 19081Q   21311.13722799  .00003511  00000-0  15416-3 0  9992
2 44818  97.4336  13.6348 0008715 279.4728  80.5523 15.22567767108048
1 44818U 19081Q   21311.59727200  .00003212  00000-0  14130-3 0  9994
2 44818  97.4334  14.0898 0008711 277.6687  82.3560 15.22570041108119
1 44818U 19081Q   21311.92587398  .00003121  00000-0  13738-3 0  9995
2 44818  97.4334  14.4149 0008699 276.3903  83.6342 15.22572105108164
1 44818U 19081Q   21312.45163640  .00002828  00000-0  12474-3 0  9993
2 44818  97.4332  14.9346 0008708 273.7363  86.2877 15.22574827108242
1 44818U 19081Q   21312.91167802  .00002402  00000-0  10642-3 0  9991
2 44818  97.4332  15.3893 0008694 271.4391  88.5850 15.22576712108313
1 44818U 19081Q   21312.97739816  .00002537  00000-0  11222-3 0  9991
2 44818  97.4331  15.4543 0008708 271.2296  88.7943 15.22577133108327
1 44818U 19081Q   21313.43743894  .00002596  00000-0  11475-3 0  9999
2 44818  97.4333  15.9093 0008720 269.4744  90.5493 15.22579602108396
1 44818U 19081Q   21313.83175930  .00002019  00000-0  89909-4 0  9991
2 44818  97.4331  16.2992 0008728 267.7732  92.2505 15.22580468108454
1 44818U 19081Q   21314.09463958  .00002159  00000-0  95959-4 0  9997
2 44818  97.4332  16.5592 0008722 266.6829  93.3409 15.22581529108491
1 44818U 19081Q   21314.88327828  .00002088  00000-0  92878-4 0  9997
2 44818  97.4333  17.3392 0008735 263.4184  96.6058 15.22585103108614
1 44818U 19081Q   21315.14615746  .00002088  00000-0  92881-4 0  9990
2 44818  97.4333  17.5992 0008739 262.3328  97.6916 15.22586366108654
1 44818U 19081Q   21315.93479397  .00002086  00000-0  92784-4 0  9997
2 44818  97.4334  18.3792 0008751 259.0532 100.9720 15.22589739108777
1 44818U 19081Q   21316.46055090  .00001991  00000-0  88682-4 0  9992
2 44818  97.4334  18.8992 0008760 256.8588 103.1671 15.22591632108854
1 44818U 19081Q   21316.92058753  .00001718  00000-0  76928-4 0  9999
2 44818  97.4334  19.3542 0008786 254.9514 105.0751 15.22592695108925
1 44818U 19081Q   21317.44634324  .00001804  00000-0  80619-4 0  9999
2 44818  97.4335  19.8742 0008810 252.7991 107.2281 15.22595003109004
1 44818U 19081Q   21317.84065945  .00001566  00000-0  70386-4 0  9995
2 44818  97.4335  20.2642 0008830 251.1872 108.8407 15.22595906109067
1 44818U 19081Q   21318.43213333  .00001739  00000-0  77826-4 0  9995
2 44818  97.4335  20.8492 0008857 248.7866 111.2425 15.22598633109158
1 44818U 19081Q   21318.89216817  .00001684  00000-0  75460-4 0  9996
2 44818  97.4331  21.3043 0008877 247.1388 112.8912 15.22599640109221
1 44818U 19081Q   21319.15504460  .00001724  00000-0  77196-4 0  9993
2 44818  97.4331  21.5643 0008886 246.0606 113.9700 15.22600949109266
1 44818U 19081Q   21319.41792121  .00001942  00000-0  86555-4 0  9996
2 44818  97.4331  21.8243 0008894 245.0105 115.0208 15.22603049109302
1 44818U 19081Q   21320.14082615  .00001940  00000-0  86422-4 0  9999
2 44818  97.4326  22.5396 0008985 241.8991 118.1338 15.22611700109414
1 44818U 19081Q   21320.92945016  .00002251  00000-0  99792-4 0  9998
2 44818  97.4330  23.3197 0008988 238.4475 121.5884 15.22615318109535
1 44818U 19081Q   21321.12660588  .00002274  00000-0  10079-3 0  9994
2 44818  97.4331  23.5147 0008986 237.7121 122.3245 15.22616219109565
1 44818U 19081Q   21321.65235371  .00002121  00000-0  94219-4 0  9990
2 44818  97.4330  24.0347 0009024 235.5755 124.4629 15.22618248109647
1 44818U 19081Q   21321.91522746  .00002177  00000-0  96616-4 0  9998
2 44818  97.4329  24.2947 0009038 234.5808 125.4585 15.22619422109687
1 44818U 19081Q   21322.44097410  .00001950  00000-0  86832-4 0  9999
2 44818  97.4329  24.8147 0009072 232.5584 127.4827 15.22621258109762
1 44818U 19081Q   21322.63812880  .00001822  00000-0  81349-4 0  9992
2 44818  97.4326  25.0094 0009085 232.0320 128.0097 15.22621640109794
1 44818U 19081Q   21322.90100199  .00001743  00000-0  77952-4 0  9992
2 44818  97.4325  25.2694 0009098 231.0017 129.0410 15.22622203109838
1 44818U 19081Q   21323.42674770  .00001909  00000-0  85051-4 0  9994
2 44818  97.4324  25.7894 0009129 228.8978 131.1470 15.22625086109910
1 44818U 19081Q   21323.62390213  .00001956  00000-0  87090-4 0  9990
2 44818  97.4324  25.9843 0009138 228.1231 131.9226 15.22626097109944
1 44818U 19081Q   21324.14964709  .00001726  00000-0  77187-4 0  9996
2 44818  97.4323  26.5043 0009176 226.0359 134.0122 15.22626848110026
1 44818U 19081Q   21325.39828585  .00002079  00000-0  92346-4 0  9991
2 44818  97.4322  27.7391 0009266 221.1352 138.9186 15.22634284110210
1 44818U 19081Q   21325.59543951  .00002186  00000-0  96938-4 0  9994
2 44818  97.4320  27.9344 0009281 220.0116 140.0438 15.22635274110248
1 44818U 19081Q   21326.12117996  .00002743  00000-0  12085-3 0  9999
2 44818  97.4314  28.4543 0009314 217.6657 142.3928 15.22639822110328
1 44818U 19081Q   21326.64691704  .00001901  00000-0  84667-4 0  9991
2 44818  97.4317  28.9743 0009402 216.1626 143.8976 15.22645003110402
1 44818U 19081Q   21326.90978614  .00001868  00000-0  83238-4 0  9993
2 44818  97.4316  29.2343 0009424 215.1968 144.8647 15.22645867110441
1 44818U 19081Q   21327.43552388  .00001839  00000-0  81984-4 0  9992
2 44818  97.4315  29.7541 0009466 213.1929 146.8714 15.22648033110520
1 44818U 19081Q   21327.63267487  .00001850  00000-0  82485-4 0  9997
2 44818  97.4318  29.9489 0009463 212.6706 147.3946 15.22649033110557
